STARLINK-1888_new
1 17171C 20088BB  21326.12676414 -.00021212  00000-0 -14211-2 0  3268
2 17171  53.0537 133.1772 0001814  80.8945 176.7509 15.06421390    14
STARLINK-1888_old
1 27171C 20088BB  21325.13109495  .00001717  00000-0  11502-3 0  3254
2 27171  53.0530 137.6470 0001867  80.3815 174.7118 15.06401626    14
